OBJECT_NAME,OBJECT_ID,EPOCH,MEAN_MOTION,ECCENTRICITY,INCLINATION,RA_OF_ASC_NODE,ARG_OF_PERICENTER,MEAN_ANOMALY,EPHEMERIS_TYPE,CLASSIFICATION_TYPE,NORAD_CAT_ID,ELEMENT_SET_NO,REV_AT_EPOCH,BSTAR,MEAN_MOTION_DOT,MEAN_MOTION_DDOT
SWARM A,2013-067B,2026-07-13T06:46:46.139808,15.51434118,.00033081,87.3301,46.5390,94.3476,265.8163,0,U,39452,999,71029,.11264203E-3,.6681E-4,0
SWARM C,2013-067C,2026-07-13T06:46:38.005248,15.51433727,.00032954,87.3301,45.1199,94.5115,265.6523,0,U,39453,999,71025,.11400653E-3,.6761E-4,0
BRITE-CA1 (TORONTO),2014-033L,2026-07-13T07:58:12.799776,14.72720389,.00782963,97.9769,322.7828,192.2372,167.6936,0,U,40020,999,64606,.89506307E-4,.545E-5,0
OCO 2,2014-035A,2026-07-13T05:59:36.748032,14.57131359,.00014473,98.2021,135.1469,81.0707,279.0655,0,U,40059,999,63984,.47741485E-4,.17E-5,0
BRITE-PL2 (HEWELIUSZ),2014-049B,2026-07-13T00:19:59.957760,14.94683999,.00145416,97.9119,306.2169,29.3912,330.8123,0,U,40119,999,64530,.79659874E-4,.806E-5,0
MMS 1,2015-011A,2026-07-13T08:00:03.000384,0.28356592,.83057088,72.5189,348.4336,168.0010,85.6107,0,U,40482,999,135,0,-.1426E-4,0
MMS 2,2015-011B,2026-07-13T08:00:03.000384,0.28356845,.8308483,72.5229,348.4326,168.0032,85.6027,0,U,40483,999,135,0,-.1427E-4,0
MMS 3,2015-011C,2026-07-13T08:00:03.000384,0.28356562,.83068884,72.5226,348.4444,168.0115,85.5725,0,U,40484,999,132,0,-.1426E-4,0
MMS 4,2015-011D,2026-07-13T08:00:03.000384,0.28356879,.83067968,72.5182,348.4279,168.0207,85.5715,0,U,40485,999,138,0,-.1426E-4,0
ASTROSAT,2015-052A,2026-07-11T18:43:55.447104,14.82549129,.00077569,5.9982,338.3312,22.2669,337.7795,0,U,40930,999,58348,.62854136E-4,.1187E-4,0
DAMPE,2015-078A,2026-07-13T05:59:30.376896,15.30850949,.00117882,97.4562,199.8456,352.6055,7.5010,0,U,41173,999,58853,.31034006E-4,.848E-5,0
PISAT,2016-059B,2026-07-13T05:33:57.009312,14.69027646,.00303713,97.8190,193.5668,120.8322,239.5879,0,U,41784,999,52356,.90723117E-4,.489E-5,0
HXMT (HUIYAN),2017-034A,2026-07-13T01:11:17.774592,15.18678216,.00325026,43.0152,39.0112,307.6003,52.1896,0,U,42758,999,50159,.13906236E-3,.2729E-4,0
FLYING LAPTOP,2017-042G,2026-07-13T07:31:57.768384,15.01304516,.00197747,97.4792,348.8620,38.5380,321.7252,0,U,42831,999,49037,.15001336E-3,.188E-4,0
ZHANGHENG 1-01 (CSES-1),2018-015C,2026-07-13T06:12:26.114976,15.20592489,.00162205,97.6883,0.4394,171.5042,188.6470,0,U,43194,999,46860,.18547029E-3,.4004E-4,0
SALSAT,2020-068K,2026-07-12T21:56:02.165280,15.30153171,.00089225,97.8853,198.5521,201.3461,158.7407,0,U,46495,999,31929,.16824237E-3,.4828E-4,0
IXPE,2021-121A,2026-07-13T08:00:03.000384,15.10479773,.00069728,0.2302,119.1086,118.8070,196.7349,0,U,49954,999,589,.35761765E-3,.6989E-4,0
