SWARM A                 
1 39452U 13067B   26194.28247847  .00006681  00000+0  11264-3 0  9991
2 39452  87.3301  46.5390 0003308  94.3476 265.8163 15.51434118710294
SWARM C                 
1 39453U 13067C   26194.28238432  .00006761  00000+0  11401-3 0  9994
2 39453  87.3301  45.1199 0003295  94.5115 265.6523 15.51433727710253
BRITE-CA1 (TORONTO)     
1 40020U 14033L   26194.33209259  .00000545  00000+0  89506-4 0  9997
2 40020  97.9769 322.7828 0078296 192.2372 167.6936 14.72720389646068
OCO 2                   
1 40059U 14035A   26194.24973088  .00000170  00000+0  47741-4 0  9998
2 40059  98.2021 135.1469 0001447  81.0707 279.0655 14.57131359639843
BRITE-PL2 (HEWELIUSZ)   
1 40119U 14049B   26194.01388840  .00000806  00000+0  79660-4 0  9992
2 40119  97.9119 306.2169 0014541  29.3912 330.8123 14.94683999645301
MMS 1                   
1 40482U 15011A   26194.33336806 -.00001426  00000+0  00000+0 0  9992
2 40482  72.5189 348.4336 8305708 168.0010  85.6107  0.28356592  1356
MMS 2                   
1 40483U 15011B   26194.33336806 -.00001427  00000+0  00000+0 0  9994
2 40483  72.5229 348.4326 8308483 168.0032  85.6027  0.28356845  1350
MMS 3                   
1 40484U 15011C   26194.33336806 -.00001426  00000+0  00000+0 0  9994
2 40484  72.5226 348.4444 8306888 168.0115  85.5725  0.28356562  1325
MMS 4                   
1 40485U 15011D   26194.33336806 -.00001426  00000+0  00000+0 0  9995
2 40485  72.5182 348.4279 8306796 168.0207  85.5715  0.28356879  1389
ASTROSAT                
1 40930U 15052A   26192.78050286  .00001187  00000+0  62854-4 0  9990
2 40930   5.9982 338.3312 0007756  22.2669 337.7795 14.82549129583480
DAMPE                   
1 41173U 15078A   26194.24965714  .00000848  00000+0  31034-4 0  9991
2 41173  97.4562 199.8456 0011788 352.6055   7.5010 15.30850949588530
PISAT                   
1 41784U 16059B   26194.23190983  .00000489  00000+0  90723-4 0  9997
2 41784  97.8190 193.5668 0030371 120.8322 239.5879 14.69027646523569
HXMT (HUIYAN)           
1 42758U 17034A   26194.04951128  .00002729  00000+0  13906-3 0  9994
2 42758  43.0152  39.0112 0032502 307.6003  52.1896 15.18678216501596
FLYING LAPTOP           
1 42831U 17042G   26194.31386306  .00001880  00000+0  15001-3 0  9990
2 42831  97.4792 348.8620 0019774  38.5380 321.7252 15.01304516490375
ZHANGHENG 1-01 (CSES-1) 
1 43194U 18015C   26194.25863559  .00004004  00000+0  18547-3 0  9996
2 43194  97.6883   0.4394 0016220 171.5042 188.6470 15.20592489468608
SALSAT                  
1 46495U 20068K   26193.91391395  .00004828  00000+0  16824-3 0  9990
2 46495  97.8853 198.5521 0008922 201.3461 158.7407 15.30153171319292
IXPE                    
1 49954U 21121A   26194.33336806  .00006989  00000+0  35762-3 0  9999
2 49954   0.2302 119.1086 0006972 118.8070 196.7349 15.10479773  5890
